[{"OBJECT_NAME":"STARLINK-32128","OBJECT_ID":"2024-131T","EPOCH":"2026-03-09T23:11:15.644256","MEAN_MOTION":15.30192661,"ECCENTRICITY":0.00014539,"INCLINATION":53.1612,"RA_OF_ASC_NODE":50.9539,"ARG_OF_PERICENTER":89.2781,"MEAN_ANOMALY":270.8386,"EPHEMERIS_TYPE":0,"CLASSIFICATION_TYPE":"U","NORAD_CAT_ID":60272,"ELEMENT_SET_NO":999,"REV_AT_EPOCH":9176,"BSTAR":5.4115e-5,"MEAN_MOTION_DOT":1.243e-5,"MEAN_MOTION_DDOT":0},{"OBJECT_NAME":"TANSTAAFL-2","OBJECT_ID":"2024-247B","EPOCH":"2026-03-08T04:58:51.015360","MEAN_MOTION":15.28016845,"ECCENTRICITY":0.00030723,"INCLINATION":44.988,"RA_OF_ASC_NODE":125.0934,"ARG_OF_PERICENTER":298.8909,"MEAN_ANOMALY":61.1666,"EPHEMERIS_TYPE":0,"CLASSIFICATION_TYPE":"U","NORAD_CAT_ID":62378,"ELEMENT_SET_NO":999,"REV_AT_EPOCH":6750,"BSTAR":0.00050871624,"MEAN_MOTION_DOT":0.00013897,"MEAN_MOTION_DDOT":0}]
